{"type": "FeatureCollection", "features": [ {"type": "Feature", "properties": {"norad_id": 66727, "name": "FLOCK 4H-24", "group": "last-30-days", "lat": 32.01201959170513, "lon": -105.0438720886181, "alt_km": 512.6387409301688, "timestamp": "2025-12-24T16:52:40.178390+00:00", "meta": {"OBJECT_NAME": "FLOCK 4H-24", "OBJECT_ID": "2025-276BP", "EPOCH": "2025-12-24T03:34:02.964288", "MEAN_MOTION": 15.17340043, "ECCENTRICITY": 0.0002855, "INCLINATION": 97.4439, "RA_OF_ASC_NODE": 69.7227, "ARG_OF_PERICENTER": 255.8351, "MEAN_ANOMALY": 104.2566, "EPHEMERIS_TYPE": 0, "CLASSIFICATION_TYPE": "U", "NORAD_CAT_ID": 66727, "ELEMENT_SET_NO": 999, "REV_AT_EPOCH": 385, "BSTAR": 0.00032237032, "MEAN_MOTION_DOT": 6.367e-05, "MEAN_MOTION_DDOT": 0}, "tle": {"line1": "1 66727U 25276BP  25358.14864542  .00006367  00000+0  32237-3 0  9998", "line2": "2 66727  97.4439  69.7227 0002855 255.8351 104.2566 15.17340043  3856"}}, "geometry": {"type": "Point", "coordinates": [-105.0438720886181, 32.01201959170513]}}, {"type": "Feature", "properties": {"norad_id": 66728, "name": "FLOCK 4H-25", "group": "last-30-days", "lat": -49.94628765709666, "lon": -118.65660090580216, "alt_km": 518.638891128302, "timestamp": "2025-12-24T16:52:40.178400+00:00", "meta": {"OBJECT_NAME": "FLOCK 4H-25", "OBJECT_ID": "2025-276BQ", "EPOCH": "2025-12-24T06:22:30.764640", "MEAN_MOTION": 15.18228639, "ECCENTRICITY": 0.00017182, "INCLINATION": 97.4396, "RA_OF_ASC_NODE": 69.8549, "ARG_OF_PERICENTER": 116.1359, "MEAN_ANOMALY": 244.0052, "EPHEMERIS_TYPE": 0, "CLASSIFICATION_TYPE": "U", "NORAD_CAT_ID": 66728, "ELEMENT_SET_NO": 999, "REV_AT_EPOCH": 315, "BSTAR": 0.00031037641, "MEAN_MOTION_DOT": 6.286e-05, "MEAN_MOTION_DDOT": 0}, "tle": {"line1": "1 66728U 25276BQ  25358.26563385  .00006286  00000+0  31038-3 0  9991", "line2": "2 66728  97.4396  69.8549 0001718 116.1359 244.0052 15.18228639  3154"}}, "geometry": {"type": "Point", "coordinates": [-118.65660090580216, -49.94628765709666]}}, {"type": "Feature", "properties": {"norad_id": 66729, "name": "FLOCK 4H-26", "group": "last-30-days", "lat": 50.22334847885714, "lon": -100.72847612933745, "alt_km": 511.26569459970233, "timestamp": "2025-12-24T16:52:40.178410+00:00", "meta": {"OBJECT_NAME": "FLOCK 4H-26", "OBJECT_ID": "2025-276BR", "EPOCH": "2025-12-24T03:38:49.533216", "MEAN_MOTION": 15.17163701, "ECCENTRICITY": 0.00037044, "INCLINATION": 97.4391, "RA_OF_ASC_NODE": 69.7001, "ARG_OF_PERICENTER": 254.8465, "MEAN_ANOMALY": 105.2359, "EPHEMERIS_TYPE": 0, "CLASSIFICATION_TYPE": "U", "NORAD_CAT_ID": 66729, "ELEMENT_SET_NO": 999, "REV_AT_EPOCH": 385, "BSTAR": 0.00037815699, "MEAN_MOTION_DOT": 7.444e-05, "MEAN_MOTION_DDOT": 0}, "tle": {"line1": "1 66729U 25276BR  25358.15196219  .00007444  00000+0  37816-3 0  9995", "line2": "2 66729  97.4391  69.7001 0003704 254.8465 105.2359 15.17163701  3859"}}, "geometry": {"type": "Point", "coordinates": [-100.72847612933745, 50.22334847885714]}}, {"type": "Feature", "properties": {"norad_id": 66730, "name": "FLOCK 4H-27", "group": "last-30-days", "lat": -37.66721014007414, "lon": -115.51620332058278, "alt_km": 518.0094775060843, "timestamp": "2025-12-24T16:52:40.178420+00:00", "meta": {"OBJECT_NAME": "FLOCK 4H-27", "OBJECT_ID": "2025-276BS", "EPOCH": "2025-12-24T06:25:45.403104", "MEAN_MOTION": 15.18104899, "ECCENTRICITY": 0.00013229, "INCLINATION": 97.437, "RA_OF_ASC_NODE": 69.8434, "ARG_OF_PERICENTER": 129.2897, "MEAN_ANOMALY": 230.8455, "EPHEMERIS_TYPE": 0, "CLASSIFICATION_TYPE": "U", "NORAD_CAT_ID": 66730, "ELEMENT_SET_NO": 999, "REV_AT_EPOCH": 387, "BSTAR": 0.00054169796, "MEAN_MOTION_DOT": 0.00010988, "MEAN_MOTION_DDOT": 0}, "tle": {"line1": "1 66730U 25276BS  25358.26788661  .00010988  00000+0  54170-3 0  9996", "line2": "2 66730  97.4370  69.8434 0001322 129.2897 230.8455 15.18104899  3875"}}, "geometry": {"type": "Point", "coordinates": [-115.51620332058278, -37.66721014007414]}}, {"type": "Feature", "properties": {"norad_id": 66731, "name": "FLOCK 4H-28", "group": "last-30-days", "lat": 48.59807594042812, "lon": -101.2405819274924, "alt_km": 511.34360975619256, "timestamp": "2025-12-24T16:52:40.178433+00:00", "meta": {"OBJECT_NAME": "FLOCK 4H-28", "OBJECT_ID": "2025-276BT", "EPOCH": "2025-12-24T05:13:21.727776", "MEAN_MOTION": 15.17153285, "ECCENTRICITY": 0.00030507, "INCLINATION": 97.4379, "RA_OF_ASC_NODE": 69.7617, "ARG_OF_PERICENTER": 258.7783, "MEAN_ANOMALY": 101.3108, "EPHEMERIS_TYPE": 0, "CLASSIFICATION_TYPE": "U", "NORAD_CAT_ID": 66731, "ELEMENT_SET_NO": 999, "REV_AT_EPOCH": 386, "BSTAR": 0.00053272125, "MEAN_MOTION_DOT": 0.00010514, "MEAN_MOTION_DDOT": 0}, "tle": {"line1": "1 66731U 25276BT  25358.21761259  .00010514  00000+0  53272-3 0  9993", "line2": "2 66731  97.4379  69.7617 0003050 258.7783 101.3108 15.17153285  3867"}}, "geometry": {"type": "Point", "coordinates": [-101.2405819274924, 48.59807594042812]}}, {"type": "Feature", "properties": {"norad_id": 66732, "name": "FLOCK 4H-29", "group": "last-30-days", "lat": 35.419774256381054, "lon": -104.42199423421228, "alt_km": 511.3022363082664, "timestamp": "2025-12-24T16:52:40.178444+00:00", "meta": {"OBJECT_NAME": "FLOCK 4H-29", "OBJECT_ID": "2025-276BU", "EPOCH": "2025-12-23T03:50:31.112448", "MEAN_MOTION": 15.17286901, "ECCENTRICITY": 0.00020889, "INCLINATION": 97.4392, "RA_OF_ASC_NODE": 68.7307, "ARG_OF_PERICENTER": 236.6345, "MEAN_ANOMALY": 123.4689, "EPHEMERIS_TYPE": 0, "CLASSIFICATION_TYPE": "U", "NORAD_CAT_ID": 66732, "ELEMENT_SET_NO": 999, "REV_AT_EPOCH": 370, "BSTAR": 0.0019114481, "MEAN_MOTION_DOT": 0.00038183, "MEAN_MOTION_DDOT": 0}, "tle": {"line1": "1 66732U 25276BU  25357.16008232  .00038183  00000+0  19114-2 0  9990", "line2": "2 66732  97.4392  68.7307 0002088 236.6345 123.4689 15.17286901  3701"}}, "geometry": {"type": "Point", "coordinates": [-104.42199423421228, 35.419774256381054]}}, {"type": "Feature", "properties": {"norad_id": 66733, "name": "FLOCK 4H-30", "group": "last-30-days", "lat": 42.0011344168314, "lon": -102.97855880831617, "alt_km": 511.8842012480054, "timestamp": "2025-12-24T16:52:40.178454+00:00", "meta": {"OBJECT_NAME": "FLOCK 4H-30", "OBJECT_ID": "2025-276BV", "EPOCH": "2025-12-24T08:00:03.000384", "MEAN_MOTION": 15.17292259, "ECCENTRICITY": 0.00032441, "INCLINATION": 97.4432, "RA_OF_ASC_NODE": 69.8976, "ARG_OF_PERICENTER": 258.0126, "MEAN_ANOMALY": 20.4559, "EPHEMERIS_TYPE": 0, "CLASSIFICATION_TYPE": "U", "NORAD_CAT_ID": 66733, "ELEMENT_SET_NO": 999, "REV_AT_EPOCH": 330, "BSTAR": -0.0025412827, "MEAN_MOTION_DOT": -0.00050319, "MEAN_MOTION_DDOT": 0}, "tle": {"line1": "1 66733U 25276BV  25358.33336806 -.00050319  00000+0 -25413-2 0  9998", "line2": "2 66733  97.4432  69.8976 0003244 258.0126  20.4559 15.17292259  3302"}}, "geometry": {"type": "Point", "coordinates": [-102.97855880831617, 42.0011344168314]}}, {"type": "Feature", "properties": {"norad_id": 66734, "name": "FLOCK 4H-31", "group": "last-30-days", "lat": 41.619053075336645, "lon": -103.0996557833125, "alt_km": 512.1859882848694, "timestamp": "2025-12-24T16:52:40.178464+00:00", "meta": {"OBJECT_NAME": "FLOCK 4H-31", "OBJECT_ID": "2025-276BW", "EPOCH": "2025-12-24T08:00:03.000384", "MEAN_MOTION": 15.17247903, "ECCENTRICITY": 0.00027526, "INCLINATION": 97.4368, "RA_OF_ASC_NODE": 69.8732, "ARG_OF_PERICENTER": 268.135, "MEAN_ANOMALY": 10.7747, "EPHEMERIS_TYPE": 0, "CLASSIFICATION_TYPE": "U", "NORAD_CAT_ID": 66734, "ELEMENT_SET_NO": 999, "REV_AT_EPOCH": 330, "BSTAR": -0.002726258, "MEAN_MOTION_DOT": -0.0005388, "MEAN_MOTION_DDOT": 0}, "tle": {"line1": "1 66734U 25276BW  25358.33336806 -.00053880  00000+0 -27263-2 0  9990", "line2": "2 66734  97.4368  69.8732 0002752 268.1350  10.7747 15.17247903  3302"}}, "geometry": {"type": "Point", "coordinates": [-103.0996557833125, 41.619053075336645]}}, {"type": "Feature", "properties": {"norad_id": 66735, "name": "FLOCK 4H-32", "group": "last-30-days", "lat": 43.73110260240843, "lon": -102.55999265443236, "alt_km": 511.6304975501944, "timestamp": "2025-12-24T16:52:40.178476+00:00", "meta": {"OBJECT_NAME": "FLOCK 4H-32", "OBJECT_ID": "2025-276BX", "EPOCH": "2025-12-24T03:37:07.597632", "MEAN_MOTION": 15.17243922, "ECCENTRICITY": 0.00035838, "INCLINATION": 97.4424, "RA_OF_ASC_NODE": 69.7134, "ARG_OF_PERICENTER": 254.0895, "MEAN_ANOMALY": 105.9944, "EPHEMERIS_TYPE": 0, "CLASSIFICATION_TYPE": "U", "NORAD_CAT_ID": 66735, "ELEMENT_SET_NO": 999, "REV_AT_EPOCH": 385, "BSTAR": 0.00052011068, "MEAN_MOTION_DOT": 0.0001029, "MEAN_MOTION_DDOT": 0}, "tle": {"line1": "1 66735U 25276BX  25358.15078238  .00010290  00000+0  52011-3 0  9999", "line2": "2 66735  97.4424  69.7134 0003583 254.0895 105.9944 15.17243922  3855"}}, "geometry": {"type": "Point", "coordinates": [-102.55999265443236, 43.73110260240843]}}, {"type": "Feature", "properties": {"norad_id": 66736, "name": "FLOCK 4H-33", "group": "last-30-days", "lat": -53.01919928932229, "lon": -119.69986179802572, "alt_km": 517.6626342358895, "timestamp": "2025-12-24T16:52:40.178487+00:00", "meta": {"OBJECT_NAME": "FLOCK 4H-33", "OBJECT_ID": "2025-276BY", "EPOCH": "2025-12-24T06:21:43.106400", "MEAN_MOTION": 15.18307128, "ECCENTRICITY": 0.00027527, "INCLINATION": 97.4425, "RA_OF_ASC_NODE": 69.866, "ARG_OF_PERICENTER": 154.1826, "MEAN_ANOMALY": 205.9546, "EPHEMERIS_TYPE": 0, "CLASSIFICATION_TYPE": "U", "NORAD_CAT_ID": 66736, "ELEMENT_SET_NO": 999, "REV_AT_EPOCH": 387, "BSTAR": 0.0004233203, "MEAN_MOTION_DOT": 8.62e-05, "MEAN_MOTION_DDOT": 0}, "tle": {"line1": "1 66736U 25276BY  25358.26508225  .00008620  00000+0  42332-3 0  9995", "line2": "2 66736  97.4425  69.8660 0002752 154.1826 205.9546 15.18307128  3874"}}, "geometry": {"type": "Point", "coordinates": [-119.69986179802572, -53.01919928932229]}}]}